FENGYUN 1C DEB          
1 29949U 99025JX  17345.66371736  .00000144  00000-0  11416-3 0  9992
2 29949  99.0560   6.0356 0023722 210.2843 260.3600 14.06404404560162
